      2.10          N: GNSS NAV DATA                        RINEX VERSION / TYPE
fic2rin                                 05/09/2020 00:17:53 PGM / RUN BY / DATE
                                                            END OF HEADER
27 20  5  8  4  0  0.0-2.877968363464e-04-1.023181539495e-11 0.000000000000e+00
    9.200000000000e+01-1.175312500000e+02 4.237676516237e-09 1.052411045007e+00
   -6.224960088730e-06 8.271247847006e-03 3.725290298462e-06 5.153663875580e+03
    4.464000000000e+05-5.215406417847e-08 2.393176648156e+00 5.587935447693e-08
    9.781175842149e-01 3.179062500000e+02 5.548134151200e-01-8.242843347511e-09
   -3.457286867018e-10 1.000000000000e+00 2.104000000000e+03 0.000000000000e+00
    2.400000000000e+00 0.000000000000e+00 1.862645149231e-09 9.200000000000e+01
    4.392000000000e+05 4.000000000000e+00
32 20  5  8  4  0  0.0 2.759997732937e-04 7.844391802792e-12 0.000000000000e+00
    8.700000000000e+01-4.059375000000e+01 4.972707133212e-09 1.769176200444e+00
   -2.106651663780e-06 3.929927479476e-03 7.426366209984e-06 5.153704969406e+03
    4.464000000000e+05-1.005828380585e-07-7.546670470717e-01 1.117587089539e-08
    9.567199876391e-01 2.375625000000e+02-2.451544471136e+00-8.224271145333e-09
   -7.286017777600e-10 1.000000000000e+00 2.104000000000e+03 0.000000000000e+00
    2.400000000000e+00 0.000000000000e+00 4.656612873077e-10 8.700000000000e+01
    4.392000000000e+05 4.000000000000e+00
18 20  5  8  4  0  0.0 1.825559884310e-04 1.250555214938e-11 0.000000000000e+00
    2.310000000000e+02-6.953125000000e+01 4.125528987699e-09-7.639634482012e-01
   -3.639608621597e-06 6.218072958291e-04 1.327693462372e-05 5.154351333618e+03
    4.464000000000e+05 1.676380634308e-08-2.817398981211e+00 5.774199962616e-08
    9.638529509042e-01 1.230312500000e+02 2.876335896878e+00-7.732107787611e-09
    4.575190575052e-10 1.000000000000e+00 2.104000000000e+03 0.000000000000e+00
    2.400000000000e+00 0.000000000000e+00-7.916241884232e-09 7.430000000000e+02
    4.392000000000e+05 4.000000000000e+00
23 20  5  8  4  0  0.0-1.159771345556e-04 3.069544618484e-12 0.000000000000e+00
    4.500000000000e+01-3.393750000000e+01 5.288434570241e-09-8.293166552703e-01
   -1.685693860054e-06 1.420129241887e-02 7.089227437973e-06 5.155147518158e+03
    4.464000000000e+05 0.000000000000e+00-7.713342336698e-01 3.352761268616e-07
    9.433914375715e-01 2.310312500000e+02-2.193608068718e+00-8.478210294347e-09
   -7.168155725315e-10 1.000000000000e+00 2.104000000000e+03 0.000000000000e+00
    2.400000000000e+00 6.300000000000e+01-2.048909664154e-08 4.500000000000e+01
    4.392000000000e+05 4.000000000000e+00
16 20  5  8  3 59 44.0-1.555848866701e-04-4.433786671143e-12 0.000000000000e+00
    6.000000000000e+00 8.696875000000e+01 4.339823628217e-09 1.935472253011e+00
    4.360452294350e-06 1.152393035591e-02 1.870095729828e-06 5.153756114960e+03
    4.463840000000e+05-2.346932888031e-07 1.435579764014e+00 1.676380634308e-08
    9.785095701884e-01 3.550000000000e+02 6.301353336545e-01-8.336418673871e-09
    2.321525272275e-10 1.000000000000e+00 2.104000000000e+03 0.000000000000e+00
    2.400000000000e+00 0.000000000000e+00-1.071020960808e-08 6.000000000000e+00
    4.434000000000e+05 4.000000000000e+00
17 20  5  8  3 59 44.0 2.612117677927e-04 6.139089236967e-12 0.000000000000e+00
    1.000000000000e+00-1.307500000000e+02 4.134815088788e-09 9.859058484674e-01
   -6.910413503647e-06 1.321105577517e-02 4.969537258148e-06 5.153694774628e+03
    4.463840000000e+05-2.756714820862e-07 2.451450335283e+00-6.519258022308e-08
    9.840107170932e-01 2.945312500000e+02-1.643792128049e+00-8.308203212869e-09
   -3.175132257003e-10 1.000000000000e+00 2.104000000000e+03 0.000000000000e+00
    2.400000000000e+00 0.000000000000e+00-1.071020960808e-08 1.000000000000e+00
    4.439400000000e+05 4.000000000000e+00
17 20  5  8  5 59 44.0 2.612555399537e-04 6.139089236967e-12 0.000000000000e+00
    2.000000000000e+00-1.299062500000e+02 3.835159749798e-09 2.035946506830e+00
   -6.815418601036e-06 1.321091630962e-02 4.310160875320e-06 5.153697822571e+03
    4.535840000000e+05 1.732259988785e-07 2.451391868300e+00-2.011656761169e-07
    9.840107873133e-01 3.065000000000e+02-1.643669143452e+00-7.837826476933e-09
   -2.739399821284e-10 1.000000000000e+00 2.104000000000e+03 0.000000000000e+00
    2.400000000000e+00 0.000000000000e+00-1.071020960808e-08 2.000000000000e+00
    4.464000000000e+05 4.000000000000e+00
16 20  5  8  5 59 44.0-1.556170172989e-04-4.433786671143e-12 0.000000000000e+00
    5.400000000000e+01 9.318750000000e+01 4.253391456541e-09 2.985602411239e+00
    4.654750227928e-06 1.152325235307e-02 1.566484570503e-06 5.153757078171e+03
    4.535840000000e+05-8.195638656616e-08 1.435520284690e+00-1.080334186554e-07
    9.785121273692e-01 3.593437500000e+02 6.301343915353e-01-8.173554747077e-09
    2.625109346341e-10 1.000000000000e+00 2.104000000000e+03 0.000000000000e+00
    2.400000000000e+00 0.000000000000e+00-1.071020960808e-08 5.400000000000e+01
    4.464000000000e+05 4.000000000000e+00
 1 20  5  8  6  0  0.0-3.757551312447e-04-7.503331289627e-12 0.000000000000e+00
    8.000000000000e+00-6.268750000000e+01 3.833373961127e-09-1.148307452186e-02
   -3.244727849960e-06 9.801819222048e-03 1.233816146851e-05 5.153631835938e+03
    4.536000000000e+05 4.470348358154e-08-2.834958989638e+00 1.341104507446e-07
    9.802892656227e-01 1.572187500000e+02 7.704719839022e-01-7.712106954496e-09
    3.625151002090e-10 1.000000000000e+00 2.104000000000e+03 0.000000000000e+00
    2.400000000000e+00 0.000000000000e+00 5.122274160385e-09 8.000000000000e+00
    4.464000000000e+05 4.000000000000e+00
 2 20  5  8  6  0  0.0-4.523233510554e-04-6.252776074689e-12 0.000000000000e+00
    7.800000000000e+01-7.200000000000e+01 4.345180994230e-09 2.317959259507e-01
   -4.025176167488e-06 1.971255731769e-02 1.271814107895e-05 5.153695363998e+03
    4.536000000000e+05-3.557652235031e-07-2.910814772330e+00-7.450580596924e-08
    9.592961498037e-01 1.378437500000e+02-1.631961072129e+00-8.151053809823e-09
    2.700112470522e-10 1.000000000000e+00 2.104000000000e+03 0.000000000000e+00
    2.400000000000e+00 0.000000000000e+00-1.769512891769e-08 7.800000000000e+01
    4.464000000000e+05 4.000000000000e+00
 5 20  5  8  6  0  0.0-1.226644963026e-05-6.821210263297e-13 0.000000000000e+00
    1.300000000000e+01 3.790625000000e+01 5.250575850417e-09 2.911936003949e+00
    1.907348632812e-06 5.835458636284e-03 6.427988409996e-06 5.153643890381e+03
    4.536000000000e+05-1.676380634308e-08-1.826190211238e+00-7.264316082001e-08
    9.520409846027e-01 2.535312500000e+02 7.898347272610e-01-8.211056309168e-09
    5.889531036893e-10 1.000000000000e+00 2.104000000000e+03 0.000000000000e+00
    2.400000000000e+00 0.000000000000e+00-1.117587089539e-08 1.300000000000e+01
    4.464000000000e+05 4.000000000000e+00
 6 20  5  8  6  0  0.0-2.675498835742e-04-7.048583938740e-12 0.000000000000e+00
    1.800000000000e+01-5.746875000000e+01 3.791943663960e-09 1.221999858456e-01
   -3.136694431305e-06 1.957806991413e-03 1.258961856365e-05 5.153537990570e+03
    4.536000000000e+05-2.421438694000e-08-2.843198284701e+00-5.401670932770e-08
    9.798576374951e-01 1.415625000000e+02-1.066864419620e+00-7.592459113540e-09
    3.860875106660e-10 1.000000000000e+00 2.104000000000e+03 0.000000000000e+00
    2.400000000000e+00 0.000000000000e+00 4.190951585770e-09 1.800000000000e+01
    4.464000000000e+05 4.000000000000e+00
 3 20  5  8  6  0  0.0-1.689032651484e-04-1.182343112305e-11 0.000000000000e+00
    1.050000000000e+02 3.200000000000e+01 4.947348934084e-09-1.053597573974e+00
    1.760199666023e-06 2.783744595945e-03 6.292015314102e-06 5.153553417206e+03
    4.536000000000e+05 3.725290298462e-09-1.794551774102e+00 1.862645149231e-09
    9.651202402633e-01 2.623125000000e+02 6.954851906412e-01-8.173197589343e-09
    5.882387882210e-10 1.000000000000e+00 2.104000000000e+03 0.000000000000e+00
    2.400000000000e+00 0.000000000000e+00 1.862645149231e-09 1.050000000000e+02
    4.464000000000e+05 4.000000000000e+00
 7 20  5  8  6  0  0.0-2.761678770185e-04-8.640199666843e-12 0.000000000000e+00
    1.020000000000e+02 8.618750000000e+01 4.345538151964e-09-7.711948863339e-01
    4.414469003677e-06 1.374649722129e-02 1.138634979725e-05 5.153679382324e+03
    4.536000000000e+05 1.769512891769e-07 3.107539376117e-01 2.719461917877e-07
    9.537990127573e-01 1.579062500000e+02-2.400585709413e+00-8.029620180196e-09
   -3.150131215609e-10 1.000000000000e+00 2.104000000000e+03 0.000000000000e+00
    2.400000000000e+00 0.000000000000e+00-1.117587089539e-08 1.020000000000e+02
    4.464000000000e+05 4.000000000000e+00
 8 20  5  8  6  0  0.0-3.324262797832e-05-1.250555214938e-12 0.000000000000e+00
    6.500000000000e+01-1.153750000000e+02 4.402683389435e-09 2.261608670359e+00
   -6.018206477165e-06 5.346386460587e-03 3.071501851082e-06 5.153662923813e+03
    4.536000000000e+05 1.862645149231e-08 2.378982270023e+00 2.421438694000e-08
    9.696872817904e-01 3.254687500000e+02-8.374514043553e-02-8.254629552740e-09
   -3.257278535868e-10 1.000000000000e+00 2.104000000000e+03 0.000000000000e+00
    3.400000000000e+00 0.000000000000e+00 5.122274160385e-09 6.500000000000e+01
    4.464000000000e+05 4.000000000000e+00
 4 20  5  8  6  0  0.0-8.647143840790e-05-5.002220859751e-12 0.000000000000e+00
    2.180000000000e+02-4.184375000000e+01 4.979850287896e-09 1.097292239380e+00
   -1.972541213036e-06 7.172389887273e-04 7.500872015953e-06 5.153683919907e+03
    4.536000000000e+05 6.519258022308e-08-7.152655064108e-01-7.450580596924e-09
    9.599063929142e-01 2.347812500000e+02-2.603273399895e+00-8.232485773220e-09
   -6.575273886550e-10 1.000000000000e+00 2.104000000000e+03 0.000000000000e+00
    2.400000000000e+00 0.000000000000e+00-4.190951585770e-09 7.300000000000e+02
    4.464000000000e+05 4.000000000000e+00
